CCSDS_OMM_VERS = 2.0
CREATION_DATE  = 
ORIGINATOR     = 

OBJECT_NAME    = SL-4 R/B
OBJECT_ID      = 2014-021B
CENTER_NAME    = EARTH
REF_FRAME      = TEME
TIME_SYSTEM    = UTC
MEAN_ELEMENT_THEORY = SGP/SGP4

EPOCH          = 2026-02-09T19:56:44.267424
MEAN_MOTION    = 15.38278777
ECCENTRICITY   = .0098921
INCLINATION    = 51.6061
RA_OF_ASC_NODE = 113.0859
ARG_OF_PERICENTER = 1.4641
MEAN_ANOMALY   = 358.6614

EPHEMERIS_TYPE = 0
CLASSIFICATION_TYPE = U
NORAD_CAT_ID   = 39679
ELEMENT_SET_NO = 999
REV_AT_EPOCH   = 65198
BSTAR          = .26492E-3
MEAN_MOTION_DOT = .11577E-3
MEAN_MOTION_DDOT = 0

CCSDS_OMM_VERS = 2.0
CREATION_DATE  = 
ORIGINATOR     = 

OBJECT_NAME    = ALOS-2
OBJECT_ID      = 2014-029A
CENTER_NAME    = EARTH
REF_FRAME      = TEME
TIME_SYSTEM    = UTC
MEAN_ELEMENT_THEORY = SGP/SGP4

EPOCH          = 2026-02-09T18:52:28.824672
MEAN_MOTION    = 14.79502299
ECCENTRICITY   = .0001402
INCLINATION    = 97.9217
RA_OF_ASC_NODE = 139.7863
ARG_OF_PERICENTER = 99.3333
MEAN_ANOMALY   = 260.8037

EPHEMERIS_TYPE = 0
CLASSIFICATION_TYPE = U
NORAD_CAT_ID   = 39766
ELEMENT_SET_NO = 999
REV_AT_EPOCH   = 63274
BSTAR          = .74842E-4
MEAN_MOTION_DOT = .508E-5
MEAN_MOTION_DDOT = 0

CCSDS_OMM_VERS = 2.0
CREATION_DATE  = 
ORIGINATOR     = 

OBJECT_NAME    = YAOGAN-29
OBJECT_ID      = 2015-069A
CENTER_NAME    = EARTH
REF_FRAME      = TEME
TIME_SYSTEM    = UTC
MEAN_ELEMENT_THEORY = SGP/SGP4

EPOCH          = 2026-02-09T20:39:24.181920
MEAN_MOTION    = 14.82962616
ECCENTRICITY   = .0002911
INCLINATION    = 98.0179
RA_OF_ASC_NODE = 69.2121
ARG_OF_PERICENTER = 81.4061
MEAN_ANOMALY   = 278.7482

EPHEMERIS_TYPE = 0
CLASSIFICATION_TYPE = U
NORAD_CAT_ID   = 41038
ELEMENT_SET_NO = 999
REV_AT_EPOCH   = 55175
BSTAR          = .17592E-4
MEAN_MOTION_DOT = .89E-6
MEAN_MOTION_DDOT = 0

CCSDS_OMM_VERS = 2.0
CREATION_DATE  = 
ORIGINATOR     = 

OBJECT_NAME    = ASTRO-H (HITOMI)
OBJECT_ID      = 2016-012A
CENTER_NAME    = EARTH
REF_FRAME      = TEME
TIME_SYSTEM    = UTC
MEAN_ELEMENT_THEORY = SGP/SGP4

EPOCH          = 2026-02-09T19:16:13.484640
MEAN_MOTION    = 15.09800486
ECCENTRICITY   = .0009881
INCLINATION    = 30.9978
RA_OF_ASC_NODE = 176.4764
ARG_OF_PERICENTER = 52.0240
MEAN_ANOMALY   = 308.1289

EPHEMERIS_TYPE = 0
CLASSIFICATION_TYPE = U
NORAD_CAT_ID   = 41337
ELEMENT_SET_NO = 999
REV_AT_EPOCH   = 54801
BSTAR          = .22701E-3
MEAN_MOTION_DOT = .3857E-4
MEAN_MOTION_DDOT = 0

CCSDS_OMM_VERS = 2.0
CREATION_DATE  = 
ORIGINATOR     = 

OBJECT_NAME    = HXMT (HUIYAN)
OBJECT_ID      = 2017-034A
CENTER_NAME    = EARTH
REF_FRAME      = TEME
TIME_SYSTEM    = UTC
MEAN_ELEMENT_THEORY = SGP/SGP4

EPOCH          = 2026-02-09T19:11:17.071296
MEAN_MOTION    = 15.17091357
ECCENTRICITY   = .0030815
INCLINATION    = 43.0129
RA_OF_ASC_NODE = 171.6858
ARG_OF_PERICENTER = 56.8910
MEAN_ANOMALY   = 303.4890

EPHEMERIS_TYPE = 0
CLASSIFICATION_TYPE = U
NORAD_CAT_ID   = 42758
ELEMENT_SET_NO = 999
REV_AT_EPOCH   = 47830
BSTAR          = .32006E-3
MEAN_MOTION_DOT = .6296E-4
MEAN_MOTION_DDOT = 0

CCSDS_OMM_VERS = 2.0
CREATION_DATE  = 
ORIGINATOR     = 

OBJECT_NAME    = CZ-2C R/B
OBJECT_ID      = 2018-054D
CENTER_NAME    = EARTH
REF_FRAME      = TEME
TIME_SYSTEM    = UTC
MEAN_ELEMENT_THEORY = SGP/SGP4

EPOCH          = 2026-02-09T16:44:45.444480
MEAN_MOTION    = 15.96984916
ECCENTRICITY   = .0012698
INCLINATION    = 35.1283
RA_OF_ASC_NODE = 135.7412
ARG_OF_PERICENTER = 32.4325
MEAN_ANOMALY   = 327.7193

EPHEMERIS_TYPE = 0
CLASSIFICATION_TYPE = U
NORAD_CAT_ID   = 43521
ELEMENT_SET_NO = 999
REV_AT_EPOCH   = 42440
BSTAR          = .85739E-3
MEAN_MOTION_DOT = .392336E-2
MEAN_MOTION_DDOT = .62322E-4

CCSDS_OMM_VERS = 2.0
CREATION_DATE  = 
ORIGINATOR     = 

OBJECT_NAME    = SAOCOM 1A
OBJECT_ID      = 2018-076A
CENTER_NAME    = EARTH
REF_FRAME      = TEME
TIME_SYSTEM    = UTC
MEAN_ELEMENT_THEORY = SGP/SGP4

EPOCH          = 2026-02-09T19:27:59.270688
MEAN_MOTION    = 14.82161332
ECCENTRICITY   = .0001408
INCLINATION    = 97.8873
RA_OF_ASC_NODE = 229.3788
ARG_OF_PERICENTER = 84.2826
MEAN_ANOMALY   = 275.8547

EPHEMERIS_TYPE = 0
CLASSIFICATION_TYPE = U
NORAD_CAT_ID   = 43641
ELEMENT_SET_NO = 999
REV_AT_EPOCH   = 39723
BSTAR          = .14143E-3
MEAN_MOTION_DOT = .1074E-4
MEAN_MOTION_DDOT = 0

CCSDS_OMM_VERS = 2.0
CREATION_DATE  = 
ORIGINATOR     = 

OBJECT_NAME    = H-2A R/B
OBJECT_ID      = 2018-084L
CENTER_NAME    = EARTH
REF_FRAME      = TEME
TIME_SYSTEM    = UTC
MEAN_ELEMENT_THEORY = SGP/SGP4

EPOCH          = 2026-02-09T13:06:32.577696
MEAN_MOTION    = 15.40107412
ECCENTRICITY   = .0026293
INCLINATION    = 98.8763
RA_OF_ASC_NODE = 251.9452
ARG_OF_PERICENTER = 119.8258
MEAN_ANOMALY   = 240.5602

EPHEMERIS_TYPE = 0
CLASSIFICATION_TYPE = U
NORAD_CAT_ID   = 43682
ELEMENT_SET_NO = 999
REV_AT_EPOCH   = 40144
BSTAR          = .52013E-3
MEAN_MOTION_DOT = .21001E-3
MEAN_MOTION_DDOT = 0

CCSDS_OMM_VERS = 2.0
CREATION_DATE  = 
ORIGINATOR     = 

OBJECT_NAME    = SAOCOM 1B
OBJECT_ID      = 2020-059A
CENTER_NAME    = EARTH
REF_FRAME      = TEME
TIME_SYSTEM    = UTC
MEAN_ELEMENT_THEORY = SGP/SGP4

EPOCH          = 2026-02-09T20:12:58.157856
MEAN_MOTION    = 14.82137956
ECCENTRICITY   = .0001499
INCLINATION    = 97.8879
RA_OF_ASC_NODE = 228.5092
ARG_OF_PERICENTER = 92.6700
MEAN_ANOMALY   = 267.4685

EPHEMERIS_TYPE = 0
CLASSIFICATION_TYPE = U
NORAD_CAT_ID   = 46265
ELEMENT_SET_NO = 999
REV_AT_EPOCH   = 29462
BSTAR          = .77865E-4
MEAN_MOTION_DOT = .567E-5
MEAN_MOTION_DDOT = 0

CCSDS_OMM_VERS = 2.0
CREATION_DATE  = 
ORIGINATOR     = 

OBJECT_NAME    = CSS (TIANHE)
OBJECT_ID      = 2021-035A
CENTER_NAME    = EARTH
REF_FRAME      = TEME
TIME_SYSTEM    = UTC
MEAN_ELEMENT_THEORY = SGP/SGP4

EPOCH          = 2026-02-09T10:04:12.077472
MEAN_MOTION    = 15.59384169
ECCENTRICITY   = .00046973
INCLINATION    = 41.4684
RA_OF_ASC_NODE = 20.0103
ARG_OF_PERICENTER = 39.0740
MEAN_ANOMALY   = 321.0437

EPHEMERIS_TYPE = 0
CLASSIFICATION_TYPE = U
NORAD_CAT_ID   = 48274
ELEMENT_SET_NO = 999
REV_AT_EPOCH   = 27319
BSTAR          = .22931724E-3
MEAN_MOTION_DOT = .18345E-3
MEAN_MOTION_DDOT = 0

CCSDS_OMM_VERS = 2.0
CREATION_DATE  = 
ORIGINATOR     = 

OBJECT_NAME    = COSMOS 2550
OBJECT_ID      = 2021-056A
CENTER_NAME    = EARTH
REF_FRAME      = TEME
TIME_SYSTEM    = UTC
MEAN_ELEMENT_THEORY = SGP/SGP4

EPOCH          = 2026-02-09T17:44:01.234752
MEAN_MOTION    = 15.33830768
ECCENTRICITY   = .0008384
INCLINATION    = 67.1429
RA_OF_ASC_NODE = 125.4789
ARG_OF_PERICENTER = 269.8458
MEAN_ANOMALY   = 90.1736

EPHEMERIS_TYPE = 0
CLASSIFICATION_TYPE = U
NORAD_CAT_ID   = 48865
ELEMENT_SET_NO = 999
REV_AT_EPOCH   = 25917
BSTAR          = .23689E-5
MEAN_MOTION_DOT = -.114E-5
MEAN_MOTION_DDOT = 0

CCSDS_OMM_VERS = 2.0
CREATION_DATE  = 
ORIGINATOR     = 

OBJECT_NAME    = CZ-2C R/B
OBJECT_ID      = 2022-058K
CENTER_NAME    = EARTH
REF_FRAME      = TEME
TIME_SYSTEM    = UTC
MEAN_ELEMENT_THEORY = SGP/SGP4

EPOCH          = 2026-02-09T09:32:44.673792
MEAN_MOTION    = 15.52239416
ECCENTRICITY   = .00423059
INCLINATION    = 50.1885
RA_OF_ASC_NODE = 103.5986
ARG_OF_PERICENTER = 80.5036
MEAN_ANOMALY   = 280.0712

EPHEMERIS_TYPE = 0
CLASSIFICATION_TYPE = U
NORAD_CAT_ID   = 52794
ELEMENT_SET_NO = 999
REV_AT_EPOCH   = 20573
BSTAR          = .5200045E-3
MEAN_MOTION_DOT = .33074E-3
MEAN_MOTION_DDOT = 0

